[{"OBJECT_NAME":"STARLINK-30465","OBJECT_ID":"2023-146A","EPOCH":"2026-03-09T22:00:01.999584","MEAN_MOTION":15.13557051,"ECCENTRICITY":0.00022159,"INCLINATION":42.9994,"RA_OF_ASC_NODE":312.1273,"ARG_OF_PERICENTER":234.1566,"MEAN_ANOMALY":2.2528,"EPHEMERIS_TYPE":0,"CLASSIFICATION_TYPE":"U","NORAD_CAT_ID":57891,"ELEMENT_SET_NO":999,"REV_AT_EPOCH":573,"BSTAR":0.085569152,"MEAN_MOTION_DOT":0.01709853,"MEAN_MOTION_DDOT":0},{"OBJECT_NAME":"KUIPER-00247","OBJECT_ID":"2025-301V","EPOCH":"2026-03-09T05:15:19.157472","MEAN_MOTION":15.36802901,"ECCENTRICITY":0.00143246,"INCLINATION":51.8623,"RA_OF_ASC_NODE":68.2445,"ARG_OF_PERICENTER":56.7606,"MEAN_ANOMALY":303.4751,"EPHEMERIS_TYPE":0,"CLASSIFICATION_TYPE":"U","NORAD_CAT_ID":67152,"ELEMENT_SET_NO":999,"REV_AT_EPOCH":1365,"BSTAR":0.00052475545,"MEAN_MOTION_DOT":0.00018882,"MEAN_MOTION_DDOT":0}]
